{"type":"FeatureCollection", "features":[
{"type":"Feature","geometry":{"type":"Polygon","coordinates":[[[116.12281248073842,24.32834840106572,0],[116.12281835121279,24.328264169729174,0],[116.12299531954179,24.328269507616774,0],[116.1229957984078,24.328256187476303,0],[116.12314104324994,24.3282605682147,0],[116.12313815499684,24.328340971950624,0],[116.12313036546688,24.328340737367114,0],[116.12312906275402,24.328376996351793,0],[116.12310442939878,24.32837625369453,0],[116.12309951323665,24.328513107828158,0],[116.12311651270605,24.328513621315405,0],[116.12311412780666,24.328580004508236,0],[116.1228937807131,24.328573358030383,0],[116.12289637539946,24.328501132501486,0],[116.12301994514881,24.32850485998363,0],[116.12302533538053,24.328354822002712,0],[116.12281248073842,24.32834840106572,0]]]},"properties":{"Shape_Leng":165.202071413,"Shape_Area":645.439598869,"名称":"县域经济研究所","类型":"教学楼&办公楼","地区":null}},
{"type":"Feature","geometry":{"type":"Polygon","coordinates":[[[116.12287959155343,24.329639947158316,0],[116.12288434012981,24.329580156040834,0],[116.12292531747491,24.32958251163308,0],[116.12293508888433,24.32943982397887,0],[116.1230187255951,24.329444632410066,0],[116.12302724163357,24.329320277926733,0],[116.12279149537,24.329306722853303,0],[116.12280061292756,24.329173591635747,0],[116.12294347574434,24.329181806374017,0],[116.12294423811714,24.329170669840483,0],[116.1229773956987,24.329172576692798,0],[116.12297810538624,24.329162223448716,0],[116.12302231385343,24.329164765596573,0],[116.12303211246993,24.329021680868852,0],[116.12297383661844,24.329018329811138,0],[116.12297019243748,24.329071553433653,0],[116.12277231073821,24.329060175227774,0],[116.12278126953409,24.328929353247865,0],[116.12306146183255,24.328945462662734,0],[116.12305636863762,24.32901984218079,0],[116.12317069659011,24.329026415810116,0],[116.1231616045722,24.32915918700842,0],[116.12305143942172,24.329152852279783,0],[116.12304821153224,24.329199991010533,0],[116.12312625124821,24.329204477252798,0],[116.12310940878376,24.329450429405377,0],[116.12313596603582,24.329451955943213,0],[116.12312213780956,24.329653892570853,0],[116.12287959155343,24.329639947158316,0]]]},"properties":{"Shape_Leng":339.416088662,"Shape_Area":1691.14936128,"名称":"田家炳科学馆","类型":"教学楼&办公楼","地区":null}},
{"type":"Feature","geometry":{"type":"Polygon","coordinates":[[[116.12378067435499,24.32741247354897,0],[116.12378313292814,24.32709875205251,0],[116.12418375284079,24.327258944166616,0],[116.12378067435499,24.32741247354897,0]]]},"properties":{"Shape_Leng":123.427772793,"Shape_Area":708.794363028,"名称":"客家研究所","类型":"教学楼&办公楼","地区":null}},
{"type":"Feature","geometry":{"type":"Polygon","coordinates":[[[116.12434859672099,24.328828944778373,0],[116.12421944188287,24.32881940397407,0],[116.12422092949605,24.32880250028105,0],[116.1239418500721,24.328781883837134,0],[116.12394198651899,24.328780093551995,0],[116.12396278937946,24.3285436638346,0],[116.12424261077038,24.32856433506476,0],[116.12424318246461,24.32855784572442,0],[116.12424528156676,24.328521923534385,0],[116.12422919039388,24.328521133754027,0],[116.12423397796861,24.328439225211824,0],[116.12425648767093,24.32844033007714,0],[116.12425884688109,24.328399961495855,0],[116.1241247124063,24.328390674450528,0],[116.12412912042794,24.328315259971536,0],[116.12437057728347,24.328327108969262,0],[116.12435676519051,24.328563425631632,0],[116.12437186004077,24.3285645409628,0],[116.12434859672099,24.328828944778373,0]]]},"properties":{"Shape_Leng":224.311633838,"Shape_Area":1562.19651538,"名称":"德隆会堂","类型":"教学楼&办公楼","地区":null}},
{"type":"Feature","geometry":{"type":"Polygon","coordinates":[[[116.12388820749923,24.3294410256451,0],[116.12385482476773,24.329408517793457,0],[116.12385981685523,24.329346199412754,0],[116.12389690651872,24.329322462442118,0],[116.12390989774046,24.329122568331044,0],[116.12388108632281,24.32908894668981,0],[116.12388561134165,24.329034228640072,0],[116.12392191482543,24.329004024274404,0],[116.12398536640025,24.329008192951065,0],[116.1240141778348,24.32904181367037,0],[116.1240552278544,24.329045472054023,0],[116.12409441472921,24.329018326583924,0],[116.1241545498344,24.329022095085563,0],[116.12418238429323,24.32905452210579,0],[116.12418282841489,24.329084225421223,0],[116.12427291136528,24.329088309331194,0],[116.1242577285569,24.329369487847647,0],[116.12414944598056,24.3293645784938,0],[116.1241484592965,24.329382850046077,0],[116.12415848779378,24.329383305134208,0],[116.12415586756,24.329431825915098,0],[116.12414770889785,24.329432106532618,0],[116.12411745836695,24.329456612463815,0],[116.12405350040513,24.32945226397416,0],[116.12402687569134,24.329422999956474,0],[116.12398919214964,24.329419619183124,0],[116.12394707075312,24.329443950034115,0],[116.12388820749923,24.3294410256451,0]]]},"properties":{"Shape_Leng":179.084406632,"Shape_Area":1612.93551974,"名称":"丽群图书馆","类型":"教学楼&办公楼","地区":null}},
{"type":"Feature","geometry":{"type":"Polygon","coordinates":[[[116.12392759531147,24.329980792845596,0],[116.12393697876857,24.329908847524408,0],[116.1239235310471,24.3298925915788,0],[116.123913289893,24.3298744799703,0],[116.12390655253475,24.32985503835375,0],[116.12390351450958,24.329834830984648,0],[116.12390426398852,24.32981444434276,0],[116.1239087792176,24.329794470110585,0],[116.12391692914944,24.329775488000973,0],[116.12392847724684,24.329758048932156,0],[116.12394308834801,24.329742659038413,0],[116.12396033839391,24.329729764980673,0],[116.12396710539362,24.32965833988709,0],[116.12432081676532,24.32968647452262,0],[116.12428567179545,24.33001313796761,0],[116.12392759531147,24.329980792845596,0]]]},"properties":{"Shape_Leng":147.510738938,"Shape_Area":1370.69651653,"名称":"宪梓艺术宫","类型":"教学楼&办公楼","地区":null}},
{"type":"Feature","geometry":{"type":"Polygon","coordinates":[[[116.12310456257983,24.330287042468754,0],[116.12310975001712,24.330219161559263,0],[116.12309083293864,24.33021794818153,0],[116.12309473513876,24.33016688816017,0],[116.1231961313763,24.330173394293258,0],[116.12319923124991,24.330132829612616,0],[116.12329752337287,24.33013913628926,0],[116.12330135937117,24.33008895065036,0],[116.12357025168652,24.33010620360092,0],[116.12356646342633,24.33015576662139,0],[116.12366242062588,24.33016192326175,0],[116.12365897234788,24.330207039455654,0],[116.12375974724687,24.330213505515214,0],[116.1237555931124,24.330267857366792,0],[116.1237390080315,24.33026679385054,0],[116.12373401478378,24.330332130131733,0],[116.12353058285645,24.330319076901436,0],[116.12353003282223,24.330326277735164,0],[116.12330035296021,24.330311540625047,0],[116.12330105670075,24.33030233565453,0],[116.12310456257983,24.330287042468754,0]]]},"properties":{"Shape_Leng":184.30327763,"Shape_Area":1273.7062957,"名称":"宪梓大楼","类型":"教学楼&办公楼","地区":null}},
{"type":"Feature","geometry":{"type":"Polygon","coordinates":[[[116.12284055524597,24.330510441666576,0],[116.12282303434102,24.33072401961387,0],[116.12256183180916,24.330706028887874,0],[116.12257933279376,24.33049268829028,0],[116.12284055524597,24.330510441666576,0]]]},"properties":{"Shape_Leng":100.598631248,"Shape_Area":630.439459469,"名称":"校史馆","类型":"教学楼&办公楼","地区":null}},
{"type":"Feature","geometry":{"type":"Polygon","coordinates":[[[116.12237548309808,24.331413509794665,0],[116.12238180262446,24.3313372497587,0],[116.12241648223359,24.330918718688164,0],[116.1224571204382,24.330962936951618,0],[116.12247777448665,24.330947000831355,0],[116.12245731011038,24.330926528917885,0],[116.12251164950557,24.330917753354324,0],[116.12256679437583,24.33091602955125,0],[116.12262166014779,24.33092139141221,0],[116.12267516773711,24.3309337334819,0],[116.12272626477109,24.33095281302019,0],[116.12277394628589,24.330978254776156,0],[116.12281727449168,24.33100955836819,0],[116.12285539721648,24.331046108125182,0],[116.1228875646666,24.331087185195145,0],[116.12291314417344,24.331131981683164,0],[116.12293163263696,24.331179616540695,0],[116.12294266642108,24.33122915289366,0],[116.12294602850623,24.33127961646856,0],[116.1229416527582,24.331330014754325,0],[116.12292962522972,24.331379356522792,0],[116.1229101824686,24.33142667132419,0],[116.12289009002595,24.33140653563706,0],[116.12287726995136,24.331417275678103,0],[116.12290490143393,24.331449443565262,0],[116.12237548309808,24.331413509794665,0]]]},"properties":{"Shape_Leng":220.07097537,"Shape_Area":2802.48111921,"名称":"图书馆","类型":"教学楼&办公楼","地区":null}},
{"type":"Feature","geometry":{"type":"Polygon","coordinates":[[[116.12234022035571,24.332944293078796,0],[116.12233676509327,24.33303467524947,0],[116.12237074606507,24.33303576641146,0],[116.12236939145347,24.333071218898947,0],[116.12235419915591,24.333070731113267,0],[116.12235142550654,24.333143263386685,0],[116.12195960133926,24.333130688161134,0],[116.12195134507692,24.333346661253724,0],[116.12220284054371,24.33335473346489,0],[116.12219439251507,24.333575714866083,0],[116.12194640928149,24.333567755938112,0],[116.12193838148713,24.33377773061216,0],[116.12233355482653,24.333790413777635,0],[116.1223308879947,24.33386016345952,0],[116.12234474860264,24.333860608339986,0],[116.12234349502282,24.333893405494663,0],[116.12231010189127,24.333892333971185,0],[116.12230661897296,24.333983430953136,0],[116.12170064763019,24.333963982117936,0],[116.12170095910318,24.333955817576676,0],[116.12165761106698,24.333954426490646,0],[116.12166046104302,24.33387988876151,0],[116.12161793948901,24.333878524114763,0],[116.12162150113704,24.33378536752169,0],[116.12169556878554,24.333787745294963,0],[116.12169617097976,24.333771996564984,0],[116.12181471349314,24.33377580166638,0],[116.12182150095329,24.333598285694627,0],[116.12189171106505,24.33360053903419,0],[116.12189338776986,24.33355668645586,0],[116.1216562135089,24.333549073970477,0],[116.12166390148212,24.33334800937089,0],[116.12189413189246,24.33335152556512,0],[116.1218962232706,24.333311120307727,0],[116.12183320347835,24.33331047938241,0],[116.12183425752492,24.333131264631483,0],[116.12171644479412,24.33312858952111,0],[116.12171630129518,24.333123108049385,0],[116.12168167982104,24.3331227415586,0],[116.12168253476304,24.333051323939205,0],[116.1216388492853,24.333050904976965,0],[116.121639203487,24.333019965914307,0],[116.12165193415993,24.333020088350505,0],[116.12165261854915,24.332960120320664,0],[116.1217203200511,24.332960770358174,0],[116.12172067243783,24.3329299486425,0],[116.12178325289966,24.3329305482492,0],[116.1217834867608,24.332910057907792,0],[116.12202738018418,24.332912396314025,0],[116.12202710437475,24.33293654890176,0],[116.12234022035571,24.332944293078796,0]]]},"properties":{"Shape_Leng":616.735539309,"Shape_Area":4866.15419324,"名称":"公颜实训大楼","类型":"教学楼&办公楼","地区":null}},
{"type":"Feature","geometry":{"type":"Polygon","coordinates":[[[116.12230419550873,24.33460915248274,0],[116.12232437681845,24.334645876863583,0],[116.1223491134646,24.334680182856868,0],[116.12237806497502,24.33471159827411,0],[116.12241083286314,24.334739690712357,0],[116.12244696611272,24.334764073506022,0],[116.122422908414,24.334794866456367,0],[116.12236398498113,24.334860105583456,0],[116.12239207911622,24.33488140794242,0],[116.12239791105267,24.334874242180884,0],[116.12240743814432,24.33488075109412,0],[116.12241437818803,24.334868912748654,0],[116.1224709643653,24.334898093749405,0],[116.12253078428071,24.33492123497074,0],[116.12259307308035,24.33493804052955,0],[116.1226570343422,24.334948295550188,0],[116.12272185025923,24.334951868911922,0],[116.12278669209643,24.334948714925513,0],[116.12285073078726,24.334938873917505,0],[116.12291314753449,24.334922471714503,0],[116.1229731442797,24.3348997180344,0],[116.12298195033162,24.33490735028898,0],[116.12298886882391,24.334903071483417,0],[116.12300202032742,24.334914940216034,0],[116.12314529683192,24.334821621440156,0],[116.12312757294218,24.334804131005647,0],[116.1231937056508,24.33474326466039,0],[116.12320560436908,24.334733388204025,0],[116.123215764544,24.334721997850917,0],[116.1232239594366,24.33470934779376,0],[116.12323000616632,24.334695720337347,0],[116.12330506038047,24.33473793812112,0],[116.12328422075097,24.334761435663136,0],[116.123347177326,24.334808309466375,0],[116.12332445202155,24.334833933849605,0],[116.1233523303501,24.33485469132739,0],[116.12330246297199,24.33490650651396,0],[116.12324770816083,24.334953999069015,0],[116.12318851036117,24.334996783491608,0],[116.12312535008307,24.335034512496794,0],[116.12305874000184,24.335066879834674,0],[116.12304383226413,24.335036184781103,0],[116.12298125514317,24.335061137276554,0],[116.12291639136298,24.335080579046107,0],[116.12284981751765,24.335094337265904,0],[116.12278212540329,24.335102289634957,0],[116.12271391675706,24.33510436546235,0],[116.12264579790788,24.335100546295642,0],[116.12257837438638,24.33509086608493,0],[116.12258437394446,24.335055215676082,0],[116.12252983489867,24.335045454644895,0],[116.12247672274277,24.335030480274607,0],[116.12242562932467,24.33501045943036,0],[116.12237712399606,24.33498561521196,0],[116.12237977739218,24.334981317183228,0],[116.1223520391253,24.334965848693294,0],[116.122329664068,24.334991943478705,0],[116.12228221856185,24.334958283270172,0],[116.122218630093,24.335031330383657,0],[116.12218743043735,24.33500773056516,0],[116.12215950950709,24.33503464273639,0],[116.12208903280738,24.334969604417484,0],[116.12202423914631,24.33489978069467,0],[116.1219655143048,24.33482558730856,0],[116.12200191529921,24.334806705517583,0],[116.121983423601,24.33477727154343,0],[116.12230419550873,24.33460915248274,0]]]},"properties":{"Shape_Leng":396.627986737,"Shape_Area":3081.01209199,"名称":"物业服务中心","类型":"教学楼&办公楼","地区":null}},
{"type":"Feature","geometry":{"type":"Polygon","coordinates":[[[116.1223561526112,24.33209145850792,0],[116.12235952226507,24.331949990571133,0],[116.12257182943313,24.331954227145253,0],[116.12257217060034,24.331939881587417,0],[116.12270106409852,24.33194245305752,0],[116.12269785688216,24.33207741306559,0],[116.12270707856307,24.332077596373622,0],[116.12270467043723,24.332178924242182,0],[116.12272805219806,24.332179390723415,0],[116.1227261590538,24.332259015659126,0],[116.12273587000047,24.332272713376316,0],[116.12274294165275,24.332287707197924,0],[116.12274717447364,24.332303574053405,0],[116.12274844902734,24.332319866238265,0],[116.12274672934952,24.33233612404658,0],[116.12274206396202,24.332351888742252,0],[116.12273458450416,24.332366715502854,0],[116.12272450201814,24.332380185970948,0],[116.1227253441495,24.332459350060855,0],[116.12270088073508,24.332459568837344,0],[116.12270344615474,24.332700686802493,0],[116.12257597258429,24.33269926641863,0],[116.12257579630158,24.33268781030619,0],[116.12235868852106,24.332686321023722,0],[116.12235809927512,24.33254816860032,0],[116.12256780102027,24.332552179791577,0],[116.12257054573072,24.332412870344896,0],[116.12254299964212,24.332411775814784,0],[116.12254288549912,24.332389867028873,0],[116.12251007009023,24.33238922861125,0],[116.1225103782527,24.332249643275414,0],[116.12254205077744,24.33225027508384,0],[116.12254202220721,24.33223067604672,0],[116.12256932231817,24.332230714732802,0],[116.12257090449474,24.33209110696775,0],[116.1223561526112,24.33209145850792,0]]]},"properties":{"Shape_Leng":300.385019962,"Shape_Area":1987.89403549,"名称":"何乔生大楼","类型":"教学楼&办公楼","地区":null}},
{"type":"Feature","geometry":{"type":"Polygon","coordinates":[[[116.12548325012848,24.33324030266624,0],[116.12529340840017,24.333044725187232,0],[116.1253416171852,24.333004742636827,0],[116.12512754655003,24.332788044520907,0],[116.12522220796754,24.332709535885332,0],[116.12529076730125,24.332778936766324,0],[116.12528240862905,24.33278586914534,0],[116.12540134388291,24.33290626405672,0],[116.1254234463691,24.332887933042294,0],[116.12545351930767,24.33291837500177,0],[116.1254597005107,24.33291324852991,0],[116.125542289903,24.33299685125705,0],[116.12547691896353,24.33305106760279,0],[116.1255825241739,24.333157968377705,0],[116.12548325012848,24.33324030266624,0]]]},"properties":{"Shape_Leng":0,"Shape_Area":0,"名称":"八十周年纪念楼","类型":"教学楼&办公楼","地区":null}},
{"type":"Feature","geometry":{"type":"Polygon","coordinates":[[[116.1261518153381,24.33239048158716,0],[116.12587871896052,24.332389178025444,0],[116.12587964306636,24.3322266709644,0],[116.12593224527569,24.33222692208507,0],[116.12593229128187,24.332218831107635,0],[116.12592025776847,24.332218773661786,0],[116.12592123001244,24.332047789912412,0],[116.12598574595225,24.332048798900747,0],[116.1259862597916,24.332021214569505,0],[116.12559905876624,24.332017714469675,0],[116.12559825768075,24.332092105632665,0],[116.12538419770367,24.332090170212226,0],[116.12538505324565,24.332010734430693,0],[116.12500103848288,24.332007261616102,0],[116.12499722679264,24.33236107033036,0],[116.1248121142854,24.332360004202652,0],[116.12481611285956,24.33222033094385,0],[116.12487736709602,24.3322218031566,0],[116.12487780439122,24.33220652781413,0],[116.12480034144679,24.332204666029696,0],[116.12480582347264,24.3320131746462,0],[116.12488517776066,24.33201508188433,0],[116.12488569483412,24.33199701967144,0],[116.12482092721666,24.3319954630196,0],[116.1248248086744,24.33185987955409,0],[116.12496703519405,24.331860404165234,0],[116.12496687295472,24.33189733618639,0],[116.12510648263846,24.331897851016606,0],[116.12510651934349,24.33188949343754,0],[116.12520923209983,24.331889872122964,0],[116.12520917817643,24.331902152515315,0],[116.12534229801668,24.33190264320383,0],[116.12534251305814,24.33185365845757,0],[116.12538299127498,24.331853807639238,0],[116.12538305088358,24.3318402282564,0],[116.1256095038579,24.331842275711978,0],[116.12560932953993,24.3318584636315,0],[116.12565250481148,24.33185885395898,0],[116.12565192428598,24.331912765678688,0],[116.1257861676835,24.33191397923351,0],[116.12578623318626,24.331907895596334,0],[116.125887673095,24.33190881253002,0],[116.12588761303037,24.331914391510068,0],[116.12602421927382,24.331915626211714,0],[116.1260245051479,24.331889070720774,0],[116.12616742414193,24.331890362347096,0],[116.12616580345676,24.332040926751375,0],[116.12610487506286,24.332040376127257,0],[116.12610482684863,24.332048857526637,0],[116.12611715262874,24.33204891635234,0],[116.12611615118794,24.332225082409153,0],[116.126104146429,24.332225025115108,0],[116.12610409550473,24.33223398313885,0],[116.12615270362171,24.332234215120625,0],[116.1261518153381,24.33239048158716,0]]]},"properties":{"Shape_Leng":0,"Shape_Area":0,"名称":"田家炳师范大楼","类型":"教学楼&办公楼","地区":null}},
{"type":"Feature","geometry":{"type":"Polygon","coordinates":[[[116.12419183952183,24.33192410971857,0],[116.12419742608328,24.331848260408588,0],[116.12435710875181,24.33185813447951,0],[116.12437656636803,24.33187249951534,0],[116.12438219811419,24.331900610505627,0],[116.12447751937749,24.331960334162414,0],[116.12442693604739,24.33202408913811,0],[116.12428346599845,24.3319318321491,0],[116.12419183952183,24.33192410971857,0]]]},"properties":{"Shape_Leng":0,"Shape_Area":0,"名称":"钦贞纪念楼","类型":"教学楼&办公楼","地区":null}},
{"type":"Feature","geometry":{"type":"Polygon","coordinates":[[[116.12377064537634,24.330452797887776,0],[116.12377836276006,24.33035598443912,0],[116.12379841619871,24.330357294775506,0],[116.12381330125308,24.33016603765624,0],[116.12379419440795,24.330164789173175,0],[116.12380143731009,24.330071725507487,0],[116.1241225725947,24.33009270886016,0],[116.12411508072186,24.330188974645633,0],[116.123996062517,24.330181197935254,0],[116.12398173548274,24.330365288480237,0],[116.12413140425653,24.33037506790528,0],[116.12412356028054,24.33047585775238,0],[116.12377064537634,24.330452797887776,0]]]},"properties":{"Shape_Leng":0,"Shape_Area":0,"名称":"荣友阁","类型":"教学楼&办公楼","地区":null}},
{"type":"Feature","geometry":{"type":"Polygon","coordinates":[[[116.12479734320104,24.331627129882843,0],[116.1247988462461,24.331581232616468,0],[116.1247579856925,24.331580109194952,0],[116.12476521803842,24.331359262376022,0],[116.1248031560259,24.33135918616818,0],[116.12480343791655,24.331305229038264,0],[116.12532778328783,24.331308440168126,0],[116.12536171732148,24.331308566776162,0],[116.12536173916523,24.33132555248242,0],[116.12536082813803,24.331379637810876,0],[116.12537069268474,24.33137962783419,0],[116.12536927907021,24.331589991445817,0],[116.12535728516828,24.33158997387154,0],[116.12535656547992,24.33163269955878,0],[116.12479734320104,24.331627129882843,0]]]},"properties":{"Shape_Leng":0,"Shape_Area":0,"名称":"宪梓体育馆","类型":"教学楼&办公楼","地区":null}},
{"type":"Feature","geometry":{"type":"Polygon","coordinates":[[[116.12473298273491,24.331162767233327,0],[116.1247422331862,24.330719229042288,0],[116.12489435314842,24.330720251613364,0],[116.12489420544644,24.330726037760023,0],[116.12527888418259,24.330731022118165,0],[116.12527897156167,24.330725359776995,0],[116.12542168484917,24.330726180529336,0],[116.12541866749028,24.33116670175568,0],[116.12526349763797,24.331165908554066,0],[116.12526353677792,24.331160195377418,0],[116.12487890649223,24.33115798260939,0],[116.12487879037396,24.331163842296938,0],[116.12473298273491,24.331162767233327,0]]]},"properties":{"Shape_Leng":0,"Shape_Area":0,"名称":"锡昌科技大楼","类型":"教学楼&办公楼","地区":null}},
{"type":"Feature","geometry":{"type":"Polygon","coordinates":[[[116.1265020778072,24.33232762275482,0],[116.12651142488747,24.332259567507926,0],[116.1265464967284,24.332263611580323,0],[116.12655138902356,24.332227991116604,0],[116.12659342733795,24.3322328384695,0],[116.12659792412258,24.33220009759297,0],[116.12667864295221,24.3322094050834,0],[116.12668066011722,24.33219471812624,0],[116.12687864781236,24.33221754741479,0],[116.12687655380887,24.332232794003627,0],[116.12695281235698,24.332241587047093,0],[116.12694863501113,24.332272002719815,0],[116.12699399450106,24.33227723290815,0],[116.12699053961187,24.332302388354147,0],[116.12702332271478,24.332306168410213,0],[116.1269963020889,24.33250290867672,0],[116.12689431678727,24.33249114923177,0],[116.12689349923859,24.332497101851473,0],[116.12659489355174,24.332462670630086,0],[116.12659596568595,24.332454864490337,0],[116.12649622739144,24.332443363867323,0],[116.12649854137385,24.33242651600334,0],[116.12648502847584,24.332424957852982,0],[116.1265020778072,24.33232762275482,0]]]},"properties":{"Shape_Leng":0,"Shape_Area":0,"名称":"李小平教育大楼","类型":"教学楼&办公楼","地区":null}},
{"type":"Feature","geometry":{"type":"Polygon","coordinates":[[[116.12624107071397,24.333275208962487,0],[116.12623456541043,24.33327437436242,0],[116.12624596625068,24.33317646839816,0],[116.12646157039065,24.33319754601747,0],[116.12646576879646,24.333161491181706,0],[116.1265836316435,24.33317301340741,0],[116.12657901399317,24.333212668920268,0],[116.12678647476652,24.33323294997904,0],[116.12677547073707,24.3333274517177,0],[116.12624107071397,24.333275208962487,0]]]},"properties":{"Shape_Leng":0,"Shape_Area":0,"名称":"化学实验楼","类型":"教学楼&办公楼","地区":null}},
{"type":"Feature","geometry":{"type":"Polygon","coordinates":[[[116.12703346866941,24.33320276811229,0],[116.12702683491162,24.333202723074894,0],[116.12702777968465,24.33308630697642,0],[116.12717928999861,24.333087339178075,0],[116.12717884668623,24.33320391935645,0],[116.12703346866941,24.33320276811229,0]]]},"properties":{"Shape_Leng":0,"Shape_Area":0,"名称":"文祠楼","类型":"教学楼&办公楼","地区":null}},
{"type":"Feature","geometry":{"type":"Polygon","coordinates":[[[116.12707666582506,24.330862340220733,0],[116.12707657605719,24.330703098378844,0],[116.12699807428048,24.330703007451685,0],[116.12700100939453,24.330361939822097,0],[116.12708136626843,24.330362402046113,0],[116.12708262526479,24.329958022398127,0],[116.12754403259697,24.329960675617563,0],[116.12754087535194,24.330274623817324,0],[116.12775596974969,24.33027516779129,0],[116.12806030837478,24.330438530257197,0],[116.12796479311415,24.330587575880024,0],[116.12771188858405,24.330451984003858,0],[116.12761243016273,24.330449641274107,0],[116.12760800666003,24.330691019565972,0],[116.12775515968198,24.33069421092243,0],[116.12805692155501,24.330855033441367,0],[116.12796158198567,24.331005066447258,0],[116.12770919187031,24.33086699032429,0],[116.12707666582506,24.330862340220733,0]]]},"properties":{"Shape_Leng":0,"Shape_Area":0,"名称":"新实训楼","类型":"教学楼&办公楼","地区":null}},
{"type":"Feature","geometry":{"type":"Polygon","coordinates":[[[116.12628882196181,24.335020678655475,0],[116.12630385222022,24.33493043074219,0],[116.1263398968452,24.334935470355987,0],[116.12634136406031,24.33492666056467,0],[116.12642740476892,24.334938690392548,0],[116.12642597859495,24.33494725379039,0],[116.1264610991554,24.33495216417582,0],[116.12644529289922,24.3350470721981,0],[116.12628882196181,24.335020678655475,0]]]},"properties":{"Shape_Leng":0,"Shape_Area":0,"名称":"百年纪念大楼","类型":"教学楼&办公楼","地区":null}},
{"type":"Feature","geometry":{"type":"Polygon","coordinates":[[[116.12525521481864,24.329670437020958,0],[116.12525628844469,24.329511316537616,0],[116.12527193504765,24.32951137037797,0],[116.12527210980664,24.32946872962395,0],[116.12525011738573,24.329468653947213,0],[116.12525035012109,24.329411869280683,0],[116.1252659461511,24.32941192294726,0],[116.12526426347671,24.329195780778207,0],[116.12525217759016,24.329195859774217,0],[116.12525254733778,24.329141865185402,0],[116.12527125501298,24.329141972742317,0],[116.125271546583,24.32909939347608,0],[116.12525589628589,24.329099303497486,0],[116.12525702600121,24.328934328186143,0],[116.12538432602172,24.3289350600237,0],[116.12538409149062,24.3289693143357,0],[116.12568815006784,24.32897106191412,0],[116.12568840337089,24.328934052968002,0],[116.12587773123744,24.328935140821734,0],[116.12587695159888,24.329049074705093,0],[116.12600015328739,24.32904978248256,0],[116.12600089444297,24.328941457088902,0],[116.1262095536115,24.328942655575027,0],[116.12620904733903,24.329016668840875,0],[116.12621843245799,24.32901672274016,0],[116.12621734520414,24.329175671845512,0],[116.12621088386439,24.32917563473763,0],[116.1262091313825,24.329431830855913,0],[116.12621542170648,24.32943186698201,0],[116.12621435370683,24.32958799770479,0],[116.12620790996051,24.32958796069737,0],[116.12620738603181,24.329664552706667,0],[116.12599969072602,24.329663359727824,0],[116.12600038920174,24.329561275315942,0],[116.12587609935154,24.32956056127563,0],[116.12587523318744,24.329673446244787,0],[116.12568654233954,24.329672362024006,0],[116.12568677092733,24.32963896528483,0],[116.12538574999414,24.329637235130036,0],[116.12538551667328,24.329671311616128,0],[116.12525521481864,24.329670437020958,0]]]},"properties":{"Shape_Leng":0,"Shape_Area":0,"名称":"百年纪念大楼","类型":"教学楼&办公楼","地区":null}},
{"type":"Feature","geometry":{"type":"MultiPolygon","coordinates":[[[[116.12483347962687,24.328193871149907,0],[116.12462957758137,24.32818057018972,0],[116.12463587960703,24.32809945735809,0],[116.12481035613158,24.328110838843447,0],[116.12480886940884,24.328120921210346,0],[116.12483918996561,24.328124675084652,0],[116.12484094432271,24.328112777707815,0],[116.12491247773272,24.32811694073545,0],[116.12491142240656,24.328182790603154,0],[116.12483482783388,24.328176518147842,0],[116.12483347962687,24.328193871149907,0]]],[[[116.12475079758326,24.328293645110325,0],[116.12485131315913,24.328298831484016,0],[116.12485008113072,24.32831887930422,0],[116.12491299343445,24.32832212540141,0],[116.12490882467505,24.328389960798397,0],[116.12484371972485,24.32838660156538,0],[116.12484479105879,24.328371132060017,0],[116.12454182233476,24.328347601639376,0],[116.12454571259282,24.3282843010537,0],[116.12459431024956,24.328286808655815,0],[116.12459519395198,24.328272429333914,0],[116.12471221673034,24.328278467555958,0],[116.12471520381003,24.328229861999713,0],[116.12475459248773,24.328231894383027,0],[116.12475079758326,24.328293645110325,0]]]]},"properties":{"Shape_Leng":0,"Shape_Area":0,"名称":"？？芳园","类型":"教学楼&办公楼","地区":null}},
{"type":"Feature","geometry":{"type":"Polygon","coordinates":[[[116.12174822347464,24.32793176455849,0],[116.12190749504005,24.327633329778667,0],[116.12241989511283,24.3278400805955,0],[116.12227616982041,24.328139151261674,0],[116.12174822347464,24.32793176455849,0]]]},"properties":{"Shape_Leng":0,"Shape_Area":0,"名称":"宇新楼","类型":"教学楼&办公楼","地区":null}},
{"type":"Feature","geometry":{"type":"Polygon","coordinates":[[[116.11857766698823,24.326108034266973,0],[116.11855599922944,24.325984113247195,0],[116.11857371126128,24.325981743454076,0],[116.11861453940355,24.32597477813752,0],[116.11861360765393,24.325968964334347,0],[116.1190120962886,24.325908306816476,0],[116.11901749523155,24.32594349434071,0],[116.11904121700036,24.3259399391487,0],[116.119055692007,24.326024073038734,0],[116.11903318191376,24.32602677851794,0],[116.11904490933982,24.326091415797215,0],[116.11900514217197,24.326098086228317,0],[116.11900691945803,24.32610963013689,0],[116.11874716328859,24.326147562863696,0],[116.11873725141761,24.326087496070464,0],[116.11872746186326,24.32608259233049,0],[116.11857766698823,24.326108034266973,0]]]},"properties":{"Shape_Leng":0,"Shape_Area":0,"名称":null,"类型":null,"地区":null}},
{"type":"Feature","geometry":{"type":"Polygon","coordinates":[[[116.12109684138557,24.32755285667822,0],[116.12163620944008,24.327770352575207,0],[116.12162519024771,24.327793295595484,0],[116.12161595486296,24.327789571531824,0],[116.12158843183568,24.327846879117985,0],[116.12155631135433,24.32783392731005,0],[116.12154481834,24.32785785790715,0],[116.1210783681372,24.32766976611042,0],[116.12108834286188,24.327648998146675,0],[116.12105661352024,24.327636202871574,0],[116.12109684138557,24.32755285667822,0]]]},"properties":{"Shape_Leng":144.863904644,"Shape_Area":725.086646515,"名称":"4栋","类型":"学生宿舍楼","地区":"南区"}},
{"type":"Feature","geometry":{"type":"Polygon","coordinates":[[[116.12149225297742,24.328045924068896,0],[116.12146377648658,24.328106182641914,0],[116.12143398902812,24.328094363732063,0],[116.1214245618354,24.328114313377505,0],[116.12108961072232,24.32798141365412,0],[116.12109893196431,24.327961690008827,0],[116.12106797241832,24.327949405639895,0],[116.12109551023117,24.327891134094696,0],[116.12108375130849,24.327886468252775,0],[116.1210967568436,24.327858948960582,0],[116.12151858023395,24.328026316886735,0],[116.12150667455711,24.328051508952637,0],[116.12149225297742,24.328045924068896,0]]]},"properties":{"Shape_Leng":118.775849484,"Shape_Area":550.55477914,"名称":"8栋","类型":"学生宿舍楼","地区":"南区"}},
{"type":"Feature","geometry":{"type":"Polygon","coordinates":[[[116.12163407696967,24.328075722555955,0],[116.12218434959675,24.328293228212306,0],[116.12216980373074,24.328324125840215,0],[116.12216227446784,24.328321150133025,0],[116.12213761606081,24.328373529077275,0],[116.12210415048959,24.328360301482594,0],[116.12209371300685,24.32838247152868,0],[116.12162661745951,24.328197843323757,0],[116.12163644110049,24.32817697604925,0],[116.12160740789493,24.328165500072224,0],[116.12163590193148,24.328104975259357,0],[116.1216222819063,24.328099591827907,0],[116.12163407696967,24.328075722555955,0]]]},"properties":{"Shape_Leng":147.152824081,"Shape_Area":734.162885385,"名称":"5栋","类型":"学生宿舍楼","地区":"南区"}},
{"type":"Feature","geometry":{"type":"Polygon","coordinates":[[[116.12152123765975,24.328318960407685,0],[116.12200394192844,24.328513950820387,0],[116.12199156464598,24.328539675531253,0],[116.1219787352917,24.328534493506087,0],[116.12195147985713,24.328591140979025,0],[116.12192205133724,24.328579252920804,0],[116.12191062658654,24.328602998872878,0],[116.12151054537854,24.328441384735935,0],[116.12152041189997,24.328420877016363,0],[116.12149157197524,24.328409226097442,0],[116.12151936734189,24.328351454289898,0],[116.12150580215321,24.3283459736672,0],[116.12152123765975,24.328318960407685,0]]]},"properties":{"Shape_Leng":133.017986043,"Shape_Area":644.976098429,"名称":"6栋","类型":"学生宿舍楼","地区":"南区"}},
{"type":"Feature","geometry":{"type":"Polygon","coordinates":[[[116.12139667738678,24.328273885975108,0],[116.1213847447257,24.32830169858006,0],[116.12137327233229,24.32829719330388,0],[116.12134608435761,24.32835531435655,0],[116.12131617124331,24.328343566013256,0],[116.12130627459926,24.328364723530555,0],[116.12090548613463,24.328207313293426,0],[116.12091626379231,24.32818427414178,0],[116.12088590369805,24.328172349796706,0],[116.12091326383631,24.328113860598172,0],[116.12090564606285,24.328110868067178,0],[116.12091743667764,24.328085663649148,0],[116.12139667738678,24.328273885975108,0]]]},"properties":{"Shape_Leng":131.67744556,"Shape_Area":643.819811424,"名称":"3栋","类型":"学生宿舍楼","地区":"南区"}},
{"type":"Feature","geometry":{"type":"Polygon","coordinates":[[[116.12122781117554,24.32860105815728,0],[116.1211968122271,24.328586748697454,0],[116.12118247537666,24.328616299615906,0],[116.1206687817405,24.328407048559026,0],[116.12068067506294,24.32838253356146,0],[116.12064246616528,24.328366968911418,0],[116.12068372395576,24.3282819307264,0],[116.12126730666881,24.328519651330957,0],[116.12122781117554,24.32860105815728,0]]]},"properties":{"Shape_Leng":156.384547631,"Shape_Area":835.997173079,"名称":"2栋","类型":"学生宿舍楼","地区":"南区"}},
{"type":"Feature","geometry":{"type":"Polygon","coordinates":[[[116.12114733808113,24.32876561093008,0],[116.1211087603805,24.328847487051643,0],[116.12107446626815,24.32883396735515,0],[116.12106252028917,24.32885940740492,0],[116.12056328397863,24.328662589432845,0],[116.12057577898346,24.32863598172787,0],[116.12054316809987,24.328623125263604,0],[116.1205810851275,24.32854237300666,0],[116.12114733808113,24.32876561093008,0]]]},"properties":{"Shape_Leng":151.020573451,"Shape_Area":786.788735932,"名称":"1栋","类型":"学生宿舍楼","地区":"南区"}},
{"type":"Feature","geometry":{"type":"Polygon","coordinates":[[[116.12069120285562,24.32889813794074,0],[116.1211259245845,24.329072669284084,0],[116.12113424964835,24.329055259057498,0],[116.12161120479317,24.32924674364574,0],[116.12159783859214,24.329274696018302,0],[116.12158843989678,24.329270922257102,0],[116.12156145955515,24.329327346452605,0],[116.12153229273267,24.329315636772165,0],[116.12152044996357,24.329340403094648,0],[116.1211109668196,24.32917251887084,0],[116.1211012731775,24.32919236944961,0],[116.12068432743465,24.329021423861146,0],[116.12069414704845,24.32900131494808,0],[116.12065964052441,24.328987167413544,0],[116.12068986085549,24.3289252824147,0],[116.12067896551633,24.328920814733774,0],[116.12069120285562,24.32889813794074,0]]]},"properties":{"Shape_Leng":232.716634824,"Shape_Area":1279.64607012,"名称":"7栋","类型":"学生宿舍楼","地区":"南区"}},
{"type":"Feature","geometry":{"type":"Polygon","coordinates":[[[116.12255287712027,24.328838487488646,0],[116.12219689591676,24.32886824127787,0],[116.12219081979265,24.328807205864166,0],[116.12254840569908,24.328777317824116,0],[116.12255287712027,24.328838487488646,0]]]},"properties":{"Shape_Leng":86.3092184509,"Shape_Area":246.885481475,"名称":"6栋","类型":"学生宿舍楼","地区":"中区"}},
{"type":"Feature","geometry":{"type":"Polygon","coordinates":[[[116.12219398142201,24.328542757535786,0],[116.1221985694414,24.328470699733586,0],[116.12249315162092,24.328485261213917,0],[116.12248887273552,24.328557948232966,0],[116.12234968423076,24.328551068746076,0],[116.12235035029153,24.328539761037426,0],[116.12233316200543,24.32853891144916,0],[116.12233253169707,24.328549605488835,0],[116.12219398142201,24.328542757535786,0]]]},"properties":{"Shape_Leng":78.4232024478,"Shape_Area":238.44943284,"名称":"7栋","类型":"教工宿舍楼","地区":"中区"}},
{"type":"Feature","geometry":{"type":"Polygon","coordinates":[[[116.12212043389941,24.326892179407075,0],[116.12216662592456,24.326797299451417,0],[116.12219267151461,24.32680794645902,0],[116.1221980400351,24.326796917814615,0],[116.1223317046513,24.326851555680687,0],[116.12232601435089,24.326863245093836,0],[116.12237295954348,24.326882434756662,0],[116.1223795942132,24.326868807163432,0],[116.12251640281293,24.326924730521814,0],[116.12251124718904,24.326935319862507,0],[116.12253753746828,24.32694606662731,0],[116.12249267478582,24.327038217221286,0],[116.12245904363937,24.327024470569103,0],[116.12246241344138,24.327017548743093,0],[116.12234113430212,24.32696797305619,0],[116.12233574380147,24.326979046716303,0],[116.12227413950099,24.326953864618496,0],[116.12227868853387,24.326944522098845,0],[116.12215882327281,24.32689552498856,0],[116.12215268325936,24.32690813621831,0],[116.12212043389941,24.326892179407075,0]]]},"properties":{"Shape_Leng":115.42832836,"Shape_Area":478.280121323,"名称":"20栋","类型":"教工宿舍楼","地区":"南区"}},
{"type":"Feature","geometry":{"type":"Polygon","coordinates":[[[116.12188905851224,24.326468727413413,0],[116.12189150260734,24.326465182880003,0],[116.12191112214502,24.326472746850193,0],[116.1219170584363,24.32645981848557,0],[116.12204870502781,24.326510572084306,0],[116.1220454667915,24.326527425907436,0],[116.12209549197858,24.32654784497078,0],[116.12210414551895,24.326530045684102,0],[116.1222364152704,24.326584037310603,0],[116.12223012024128,24.326596987085182,0],[116.12225587117194,24.32660749786634,0],[116.122209519429,24.32670284365694,0],[116.1221740451965,24.326688364077803,0],[116.12217769789295,24.326680850781827,0],[116.12213390725839,24.326662975666938,0],[116.1221147333237,24.326702416417234,0],[116.1220888183232,24.32669183785897,0],[116.1221082720856,24.32665182186798,0],[116.1220530556126,24.326629282894366,0],[116.12204754508483,24.32664061674738,0],[116.12198961903538,24.326616972448406,0],[116.12199428711487,24.326607368825787,0],[116.12195086494525,24.32658964474566,0],[116.1219322795976,24.32662787466723,0],[116.12190401657752,24.32661633820909,0],[116.12192324652216,24.32657678315989,0],[116.12187705093343,24.32655792630215,0],[116.12187193113722,24.326568458051486,0],[116.12184576565735,24.326557777797294,0],[116.12188905851224,24.326468727413413,0]]]},"properties":{"Shape_Leng":133.841255644,"Shape_Area":507.930319144,"名称":"19栋","类型":"教工宿舍楼","地区":"南区"}},
{"type":"Feature","geometry":{"type":"Polygon","coordinates":[[[116.1214908360889,24.325977119871233,0],[116.12150960206812,24.3258975401996,0],[116.12156876458991,24.325909254656487,0],[116.12157214308074,24.325894928475705,0],[116.12165435944524,24.325911207960182,0],[116.12165184055817,24.325921888362455,0],[116.12176492167856,24.32594427932319,0],[116.12176905114265,24.325926768940107,0],[116.12185134528481,24.325943063212996,0],[116.12184895426401,24.32595320450908,0],[116.12190804994296,24.325964905809535,0],[116.12188918171843,24.326044917364957,0],[116.12186031911675,24.326039202932108,0],[116.12185746125854,24.326051323984785,0],[116.12180712684493,24.32604135700014,0],[116.12180391788128,24.32605496105779,0],[116.12176613263865,24.326047478837673,0],[116.12176857132701,24.326037141017686,0],[116.12171430048626,24.326026395617042,0],[116.12171710150213,24.326014518885973,0],[116.12166316027083,24.326003838567672,0],[116.1216598071439,24.326018059274528,0],[116.12160914415125,24.3260080271303,0],[116.12160588440982,24.326021848454253,0],[116.12157306276713,24.326015350030108,0],[116.12157626569997,24.32600176670633,0],[116.12152114680654,24.325990852930012,0],[116.12152306590075,24.325982718448486,0],[116.1214908360889,24.325977119871233,0]]]},"properties":{"Shape_Leng":117.343221434,"Shape_Area":437.247419852,"名称":"15栋","类型":"教工宿舍楼","地区":"南区"}},
{"type":"Feature","geometry":{"type":"Polygon","coordinates":[[[116.12157250427134,24.32559868046589,0],[116.12159524197165,24.325483437722013,0],[116.12199485478887,24.325550846834098,0],[116.12197167612071,24.325666224313196,0],[116.12193359502051,24.325659801166545,0],[116.12193570579313,24.325649294435582,0],[116.12189076286681,24.325641713065103,0],[116.12188762273217,24.325657341508307,0],[116.12185288547198,24.325651482049885,0],[116.12185570322742,24.32563745865241,0],[116.12180664104194,24.325629182675762,0],[116.12180468226735,24.3256389328698,0],[116.1217375704945,24.325627612154044,0],[116.12174000773852,24.325615481447187,0],[116.12169424019854,24.32560776073659,0],[116.12169110411844,24.325623369338086,0],[116.12165717872247,24.32561764723862,0],[116.12166031687639,24.3256020242058,0],[116.12161147023343,24.32559378371868,0],[116.12160924110604,24.32560487745546,0],[116.12157250427134,24.32559868046589,0]]]},"properties":{"Shape_Leng":120.170007118,"Shape_Area":517.087323922,"名称":"16栋","类型":"教工宿舍楼","地区":"南区"}},
{"type":"Feature","geometry":{"type":"Polygon","coordinates":[[[116.12208139293203,24.326074713495196,0],[116.12210754401617,24.32608489800995,0],[116.12211477161344,24.32606986194182,0],[116.12225141025907,24.326125001848233,0],[116.12224622870076,24.32613578241607,0],[116.12229873512793,24.326156971368484,0],[116.12230439145091,24.326145204120923,0],[116.12243580741877,24.32619823641632,0],[116.12243172235308,24.326206735740307,0],[116.12245832781123,24.326217472602718,0],[116.12242745840355,24.32628170142858,0],[116.12238281564403,24.32626368604632,0],[116.12237144801382,24.32628733668472,0],[116.12233718020794,24.326273508690466,0],[116.12233087217724,24.32628663353032,0],[116.12229851234949,24.32627357487736,0],[116.1223052231935,24.326259611900078,0],[116.12226253951842,24.32624238689213,0],[116.1222575958392,24.32625267322133,0],[116.12222333100503,24.326238846121758,0],[116.12223282555058,24.326219090898483,0],[116.12218832432072,24.326201132249476,0],[116.12218285888113,24.32621250428534,0],[116.12215458421404,24.326201095096415,0],[116.12214692480296,24.32621703142711,0],[116.12211353538086,24.32620355692824,0],[116.12212063107089,24.326188791827548,0],[116.12207517784736,24.32617044938392,0],[116.1220697383929,24.32618176649761,0],[116.12203640597286,24.326168314880782,0],[116.12208139293203,24.326074713495196,0]]]},"properties":{"Shape_Leng":123.699437774,"Shape_Area":468.737727831,"名称":"17栋","类型":"教工宿舍楼","地区":"南区"}},
{"type":"Feature","geometry":{"type":"Polygon","coordinates":[[[116.12250358353374,24.326296703045998,0],[116.12253232671966,24.326307754678872,0],[116.12253747900176,24.326296501789184,0],[116.1226707322008,24.326347737184474,0],[116.12266462771683,24.326361066335995,0],[116.12270819257435,24.32637781696115,0],[116.12271353886895,24.32636614359846,0],[116.12285722947902,24.32642139143711,0],[116.12285176016759,24.326433333116164,0],[116.12288258064622,24.32644518389406,0],[116.12283871201153,24.32654098027274,0],[116.1227984230989,24.32652548900703,0],[116.1228030282214,24.326515432712096,0],[116.12275780761202,24.326498045126243,0],[116.12275134603614,24.32651215490874,0],[116.12272170369684,24.32650075777918,0],[116.12272874142049,24.32648538927168,0],[116.12268073807917,24.32646693296298,0],[116.12267648002923,24.326476232040335,0],[116.12261670211868,24.326453248024695,0],[116.12262154530882,24.32644267221996,0],[116.12257369922308,24.32642427546635,0],[116.12256696454672,24.326438983996386,0],[116.12253620698408,24.326427157893256,0],[116.12254341176588,24.32641142474319,0],[116.12249920429198,24.32639442751378,0],[116.12249460315334,24.326404474794625,0],[116.12245314993686,24.326388536161467,0],[116.12250358353374,24.326296703045998,0]]]},"properties":{"Shape_Leng":125.146110143,"Shape_Area":503.733516914,"名称":"21栋","类型":"教工宿舍楼","地区":"南区"}},
{"type":"Feature","geometry":{"type":"Polygon","coordinates":[[[116.1229690292204,24.326590562646945,0],[116.12302150346046,24.326483472791192,0],[116.12307214071738,24.326504305827456,0],[116.12307862879271,24.326491064637306,0],[116.12320658806792,24.32654370888402,0],[116.1231756455921,24.32660685774487,0],[116.12319618130336,24.326615306130524,0],[116.12322675505142,24.326552909841578,0],[116.12326447539776,24.32656842858757,0],[116.12326869119016,24.326559824372925,0],[116.12335722474167,24.326596248385655,0],[116.12334927480512,24.326612472886602,0],[116.12339807011614,24.326632547693293,0],[116.12334518743073,24.326740472181054,0],[116.12330440380424,24.32672369356444,0],[116.12330770429014,24.326716958188815,0],[116.12320279553894,24.32667379705362,0],[116.12319665619778,24.326686327084172,0],[116.12312018980842,24.326654867451047,0],[116.12312545781263,24.326644116240598,0],[116.1230162815212,24.326599198833076,0],[116.12301011219448,24.326611789167437,0],[116.1229690292204,24.326590562646945,0]]]},"properties":{"Shape_Leng":134.436056984,"Shape_Area":557.343092865,"名称":"22栋","类型":"教工宿舍楼","地区":"南区"}},
{"type":"Feature","geometry":{"type":"Polygon","coordinates":[[[116.12176288215385,24.330956429349065,0],[116.12176344503274,24.33091850684725,0],[116.12173291498314,24.330918126142894,0],[116.12173421601753,24.33083057699553,0],[116.12194686125896,24.330833230213027,0],[116.12194693716798,24.330828076807524,0],[116.12203614514462,24.330829189643378,0],[116.12203506272557,24.330902057608657,0],[116.122165275996,24.330903681124838,0],[116.1221653178925,24.330900889136977,0],[116.12222465691637,24.330901629577674,0],[116.1222228530171,24.331023034665137,0],[116.12216154065939,24.331022270169317,0],[116.12216145723538,24.331027943520052,0],[116.12200076401179,24.33102593873374,0],[116.12200126975466,24.330991865258742,0],[116.12193750634677,24.330991069339838,0],[116.12193801866599,24.330956615842286,0],[116.12176288215385,24.330956429349065,0]]]},"properties":{"Shape_Leng":144.288905229,"Shape_Area":726.534917453,"名称":"1栋A","类型":"学生宿舍楼","地区":"中区"}},
{"type":"Feature","geometry":{"type":"Polygon","coordinates":[[[116.12222789578105,24.33130100673378,0],[116.12200644025992,24.33130055620457,0],[116.122006526723,24.3312648472161,0],[116.12193841273063,24.33126470860912,0],[116.12193849379597,24.331231501131647,0],[116.12176673249304,24.331231151805934,0],[116.12176682593781,24.331192867291218,0],[116.12173195073386,24.331192795459867,0],[116.12173216428826,24.331104928570724,0],[116.1220398005181,24.3311055549052,0],[116.12203962818336,24.331176747197862,0],[116.12222630680779,24.33117712652476,0],[116.12222789578105,24.33130100673378,0]]]},"properties":{"Shape_Leng":143.756127881,"Shape_Area":733.577612803,"名称":"1栋B栋","类型":"学生宿舍楼","地区":"中区"}},
{"type":"Feature","geometry":{"type":"Polygon","coordinates":[[[116.12128560785578,24.331461703435945,0],[116.1212857669037,24.331372213986235,0],[116.12132352629247,24.33137195325349,0],[116.12132324069998,24.33133721889971,0],[116.12165421437808,24.33133493253771,0],[116.12165448591297,24.331367860393236,0],[116.12169369171725,24.33136758898197,0],[116.12169444272662,24.33145888019359,0],[116.12128560785578,24.331461703435945,0]]]},"properties":{"Shape_Leng":110.425958109,"Shape_Area":540.966522497,"名称":"1栋C","类型":"学生宿舍楼","地区":"中区"}},
{"type":"Feature","geometry":{"type":"Polygon","coordinates":[[[116.12129300545973,24.331963502591005,0],[116.12129039636258,24.33158895860881,0],[116.12213387928338,24.331579045852674,0],[116.12213432542978,24.331610958213925,0],[116.12217489335345,24.33161048150857,0],[116.12217617110997,24.331701731534622,0],[116.12175693640813,24.33170665887962,0],[116.12175557783308,24.331709783366517,0],[116.12175365531004,24.33171264848909,0],[116.12175122565134,24.331715169580285,0],[116.12174836065564,24.331717272139507,0],[116.12174514498624,24.33171889403416,0],[116.12174167366918,24.331719987335745,0],[116.1217438602849,24.331960056810164,0],[116.12129300545973,24.331963502591005,0]],[[116.1213444001213,24.331838205820443,0],[116.12168757564726,24.331838463618958,0],[116.1216894335748,24.33179905455361,0],[116.12160783675631,24.33179840082235,0],[116.12160817214779,24.331750039324966,0],[116.12168841453739,24.33175050376206,0],[116.12168750396413,24.33172309257295,0],[116.12168446553812,24.33172258933577,0],[116.12168154951931,24.33172165918892,0],[116.1216788268881,24.331720324773606,0],[116.12167636391749,24.331718618571543,0],[116.12167422056001,24.331716582114346,0],[116.12167244898828,24.331714264972515,0],[116.12167109232502,24.33171172354885,0],[116.12167018359352,24.331709019705517,0],[116.12166974491366,24.331706219258223,0],[116.12134423986679,24.33171086460448,0],[116.12134495887013,24.331753185533277,0],[116.12142358554958,24.331752063637957,0],[116.12142438617603,24.331799125419867,0],[116.12134375526982,24.331800276334707,0],[116.1213444001213,24.331838205820443,0]]]},"properties":{"Shape_Leng":392.184503516,"Shape_Area":2076.39960638,"名称":"1栋D和E","类型":"学生宿舍楼","地区":"中区"}},
{"type":"Feature","geometry":{"type":"Polygon","coordinates":[[[116.12363465541836,24.334769998844237,0],[116.12363555345395,24.33466688566149,0],[116.12367264075647,24.334667156821975,0],[116.12367254030981,24.33467869060076,0],[116.12388055835092,24.334680211338295,0],[116.12388058851869,24.334676746678316,0],[116.12409449117517,24.334678310138315,0],[116.12409374659003,24.3347638393953,0],[116.12443535919803,24.334765612269607,0],[116.12443479809347,24.334856398952216,0],[116.12440032663588,24.334856220089193,0],[116.12440018409767,24.334879281674205,0],[116.12404352597468,24.334877430610096,0],[116.12404405339412,24.334792136680285,0],[116.12367505416019,24.334789463575905,0],[116.12367509669117,24.334769906401217,0],[116.12363465541836,24.334769998844237,0]]]},"properties":{"Shape_Leng":0,"Shape_Area":0,"名称":null,"类型":"学生宿舍楼","地区":"东区"}},
{"type":"Feature","geometry":{"type":"Polygon","coordinates":[[[116.12412666656864,24.335168673728486,0],[116.12412766994122,24.3350718243164,0],[116.12421451688462,24.335072579637938,0],[116.12421440152539,24.33508371530835,0],[116.1245776799974,24.335083019707348,0],[116.12457816628454,24.33495804006014,0],[116.12467129522841,24.334958432719585,0],[116.12467123667318,24.334970092590453,0],[116.12507738534022,24.33497180436712,0],[116.1250774832854,24.33495228853692,0],[116.12516749742673,24.33495266776797,0],[116.12516699673634,24.33505244542953,0],[116.12513608341229,24.335052315196577,0],[116.12513589878785,24.335089105230345,0],[116.12467036876062,24.335087143259834,0],[116.12466977200391,24.335205971555148,0],[116.12415742263528,24.33520381060075,0],[116.12415759908438,24.33516870364853,0],[116.12412666656864,24.335168673728486,0]]]},"properties":{"Shape_Leng":0,"Shape_Area":0,"名称":null,"类型":"学生宿舍楼","地区":"东区"}},
{"type":"Feature","geometry":{"type":"Polygon","coordinates":[[[116.12506212316647,24.334773419403582,0],[116.12513346797395,24.334687596908317,0],[116.12526953097627,24.334782554606413,0],[116.12528046877061,24.334783066982013,0],[116.12528314492593,24.33477017408614,0],[116.12533012124727,24.334778360028466,0],[116.12532766505414,24.33479019323529,0],[116.12552824448936,24.334819583418067,0],[116.12551971336957,24.334886422088328,0],[116.12549130802843,24.33488304262548,0],[116.1254843837986,24.33492030555016,0],[116.1251894331059,24.334889020400702,0],[116.1251879773629,24.334861819532403,0],[116.12506212316647,24.334773419403582,0]]]},"properties":{"Shape_Leng":0,"Shape_Area":0,"名称":null,"类型":"学生宿舍楼","地区":"东区"}},
{"type":"Feature","geometry":{"type":"Polygon","coordinates":[[[116.12520182746175,24.33438418486232,0],[116.12533172012651,24.334481406474513,0],[116.125346109266,24.334481489414742,0],[116.1253476212671,24.334465740899482,0],[116.12539738837971,24.334475996610433,0],[116.12539448139673,24.334490450781598,0],[116.12559434677254,24.334517650285992,0],[116.12559076439719,24.334579372262624,0],[116.12555778346443,24.334577895903717,0],[116.12555662906428,24.334592681753755,0],[116.12554243193864,24.334615753421815,0],[116.12537904144953,24.334592301423235,0],[116.12537936454443,24.33457227869346,0],[116.12533659114652,24.334571699243952,0],[116.12533622740615,24.334594240375232,0],[116.1252594169135,24.33459319979588,0],[116.12526001898148,24.33455589079841,0],[116.1251293496096,24.33446126685795,0],[116.12520182746175,24.33438418486232,0]]]},"properties":{"Shape_Leng":0,"Shape_Area":0,"名称":null,"类型":"学生宿舍楼","地区":"东区"}},
{"type":"Feature","geometry":{"type":"Polygon","coordinates":[[[116.12363701614123,24.334266209339113,0],[116.12366806538762,24.334266520371116,0],[116.123673291524,24.334050138616757,0],[116.12365509942258,24.333997761260548,0],[116.12364340004034,24.333943850962957,0],[116.12363833951461,24.333889081157647,0],[116.12363998105155,24.33383413601418,0],[116.12364830413694,24.333779701891498,0],[116.12366320479286,24.333726458764193,0],[116.12368449687705,24.333675071728475,0],[116.1236926323507,24.333453701489262,0],[116.12366429140323,24.333453427181883,0],[116.12366556738732,24.333342750220382,0],[116.12375522841388,24.333343098807678,0],[116.12375516166676,24.333357513221717,0],[116.1242609476817,24.333362804239258,0],[116.12425963197816,24.333468411327797,0],[116.12376076590787,24.333462579436528,0],[116.12376055020653,24.333573536816104,0],[116.12425333582905,24.3335817592211,0],[116.12425181046493,24.33368699489932,0],[116.12375612573578,24.33368123153582,0],[116.12375522631388,24.33381199718171,0],[116.12424816063691,24.333820523103938,0],[116.12424745440167,24.333923258731783,0],[116.1237477610017,24.333917657413423,0],[116.1237475379397,24.334048056504884,0],[116.12424357424449,24.334054036821804,0],[116.12424271310657,24.334162051780236,0],[116.1237400573125,24.334155939377858,0],[116.12373941315703,24.334266732757637,0],[116.12423592285015,24.334272493270042,0],[116.12423540790394,24.33437803156634,0],[116.12371974233777,24.33437119569586,0],[116.12372009712553,24.334380845025926,0],[116.12363626095046,24.33438016699916,0],[116.12363701614123,24.334266209339113,0]]]},"properties":{"Shape_Leng":0,"Shape_Area":0,"名称":null,"类型":"学生宿舍楼","地区":"东区"}},
{"type":"Feature","geometry":{"type":"Polygon","coordinates":[[[116.12440441548947,24.33445362091494,0],[116.12439632762741,24.334337806856198,0],[116.1246144475634,24.33432501878061,0],[116.12460874967938,24.334243429895377,0],[116.12462518533528,24.334242466282056,0],[116.12461784046445,24.334137294013136,0],[116.12514851922262,24.334091881229757,0],[116.12514874541979,24.334133806766552,0],[116.12518478039755,24.33412694863205,0],[116.12518320232188,24.33420701952928,0],[116.12474337489581,24.334244994311696,0],[116.1247632229267,24.334424111117723,0],[116.12440441548947,24.33445362091494,0]]]},"properties":{"Shape_Leng":0,"Shape_Area":0,"名称":null,"类型":"学生宿舍楼","地区":"东区"}},
{"type":"Feature","geometry":{"type":"Polygon","coordinates":[[[116.12528761815828,24.334215145922443,0],[116.1252359044116,24.334127419303197,0],[116.12538452224823,24.33405495668906,0],[116.12536593357797,24.334042382214143,0],[116.12541386105678,24.33398290130624,0],[116.12543242089234,24.33399545627211,0],[116.12551729300503,24.333866690835308,0],[116.1255382335336,24.333858715186164,0],[116.12556396525926,24.333858583187222,0],[116.12558563164747,24.3338926664818,0],[116.12560018493949,24.3338892773197,0],[116.12561783424829,24.333922825704075,0],[116.12544599236521,24.3341512410754,0],[116.12543354137857,24.33414363237487,0],[116.12528761815828,24.334215145922443,0]]]},"properties":{"Shape_Leng":0,"Shape_Area":0,"名称":null,"类型":"学生宿舍楼","地区":"东区"}},
{"type":"Feature","geometry":{"type":"Polygon","coordinates":[[[116.12545589924078,24.333812518176106,0],[116.12542587692678,24.33360951868762,0],[116.12545217168835,24.333606313681532,0],[116.12544697423543,24.33357051491165,0],[116.12542121969794,24.33357365407124,0],[116.12538633827356,24.333333398643852,0],[116.12551060740623,24.333320218949126,0],[116.125538651901,24.33354221359445,0],[116.12555483643769,24.333539648094415,0],[116.12555705886037,24.333551418530252,0],[116.12556126089648,24.33355427985693,0],[116.12556486791351,24.333557756652965,0],[116.12556777394096,24.333561746773604,0],[116.12556989360256,24.333566132993173,0],[116.12557116462479,24.333570786448973,0],[116.12557154966612,24.33357557042717,0],[116.12557103741437,24.3335803443793,0],[116.1255696429189,24.333584968051436,0],[116.12556740714847,24.3335893056047,0],[116.12556439578775,24.333593229606127,0],[116.12556582909055,24.333606070118936,0],[116.12555242958797,24.333607325806135,0],[116.12557409749107,24.33380144170105,0],[116.12545589924078,24.333812518176106,0]]]},"properties":{"Shape_Leng":0,"Shape_Area":0,"名称":null,"类型":"学生宿舍楼","地区":"东区"}},
{"type":"Feature","geometry":{"type":"Polygon","coordinates":[[[116.12315017133562,24.33260333024533,0],[116.12315343461903,24.332523893945083,0],[116.1232980254922,24.332528880666985,0],[116.12329328474013,24.332644285308117,0],[116.12353519356283,24.332658320440107,0],[116.1235345401304,24.33267402509361,0],[116.12357099533706,24.332676092071093,0],[116.1235713089516,24.332660415759324,0],[116.12357299289823,24.33260988295677,0],[116.12365865231368,24.332612837000337,0],[116.12365190088107,24.332777198909547,0],[116.12355862617677,24.332773982240035,0],[116.12355993962029,24.33274200740993,0],[116.1232630329887,24.332719549097607,0],[116.12326382392617,24.33260461461286,0],[116.12315017133562,24.33260333024533,0]]]},"properties":{"Shape_Leng":0,"Shape_Area":0,"名称":null,"类型":"学生宿舍楼","地区":"中区"}},
{"type":"Feature","geometry":{"type":"Polygon","coordinates":[[[116.12354554514057,24.332551491823963,0],[116.12354822204107,24.332449983822425,0],[116.12369247097695,24.332453177418888,0],[116.12369436170606,24.332381477779034,0],[116.12362041181932,24.332381492993154,0],[116.12362080000834,24.332325059790897,0],[116.12360864404913,24.332324989589395,0],[116.12360897912124,24.33227627882512,0],[116.12384774801022,24.33227765755101,0],[116.12384700936606,24.33238506627768,0],[116.12378168563826,24.332384689113923,0],[116.12378070735946,24.332526932345942,0],[116.12374170692695,24.332526707152024,0],[116.1237415233909,24.33255339226017,0],[116.12354554514057,24.332551491823963,0]]]},"properties":{"Shape_Leng":0,"Shape_Area":0,"名称":null,"类型":"学生宿舍楼","地区":"中区"}},
{"type":"Feature","geometry":{"type":"Polygon","coordinates":[[[116.12389681949593,24.332178129942413,0],[116.12390948649971,24.332067049370576,0],[116.12415319274919,24.332090381068937,0],[116.12415440117049,24.332079783888645,0],[116.12416847897292,24.332081131642525,0],[116.12417293669671,24.332078120717494,0],[116.12417787713555,24.33207582791905,0],[116.12418316380487,24.332074316588056,0],[116.12418865065507,24.332073628476564,0],[116.12419418610635,24.332073782594346,0],[116.12419961723633,24.332074774683754,0],[116.12420479400454,24.332076577337315,0],[116.12420957339754,24.332079140754907,0],[116.12421382337972,24.332082394119542,0],[116.12421742654098,24.332086247553704,0],[116.12422882450197,24.3320881192661,0],[116.12422673831077,24.332098784985146,0],[116.12446933241164,24.33212208635692,0],[116.12445707969064,24.332235141832076,0],[116.1241952527472,24.3322113182645,0],[116.12419787330937,24.332187138895712,0],[116.1241573267138,24.33218344953034,0],[116.1241549247849,24.33220561155201,0],[116.12389681949593,24.332178129942413,0]]]},"properties":{"Shape_Leng":0,"Shape_Area":0,"名称":null,"类型":"学生宿舍楼","地区":"中区"}},
{"type":"Feature","geometry":{"type":"Polygon","coordinates":[[[116.12365589970858,24.331840808735645,0],[116.12390200780536,24.331865583619944,0],[116.12390767682605,24.33181830383286,0],[116.12416785949448,24.331844495111664,0],[116.12415676856706,24.331936995280024,0],[116.12392278516658,24.331913441365458,0],[116.12391701163186,24.331961592802998,0],[116.12366661041669,24.33193638578017,0],[116.12364764305516,24.331918284959006,0],[116.12365589970858,24.331840808735645,0]]]},"properties":{"Shape_Leng":0,"Shape_Area":0,"名称":null,"类型":"学生宿舍楼","地区":"中区"}},
{"type":"Feature","geometry":{"type":"Polygon","coordinates":[[[116.1266078191475,24.335505686419758,0],[116.12660933863212,24.335318193981987,0],[116.12725141260952,24.335321787120375,0],[116.1272501813723,24.33550656090537,0],[116.1266078191475,24.335505686419758,0]]]},"properties":{"Shape_Leng":0,"Shape_Area":0,"名称":null,"类型":"学生宿舍楼","地区":"东区"}},
{"type":"Feature","geometry":{"type":"Polygon","coordinates":[[[116.12744567364173,24.33550487626689,0],[116.12745004077468,24.335320055604832,0],[116.12809226024281,24.335320966992686,0],[116.12809107373955,24.335508433998967,0],[116.12744567364173,24.33550487626689,0]]]},"properties":{"Shape_Leng":0,"Shape_Area":0,"名称":null,"类型":"学生宿舍楼","地区":"东区"}},
{"type":"Feature","geometry":{"type":"Polygon","coordinates":[[[116.12737443920327,24.335012850593,0],[116.12737589482977,24.334822176598813,0],[116.12801808276996,24.334825847910306,0],[116.12801678660075,24.33501625804804,0],[116.12737443920327,24.335012850593,0]]]},"properties":{"Shape_Leng":0,"Shape_Area":0,"名称":null,"类型":"学生宿舍楼","地区":"东区"}},
{"type":"Feature","geometry":{"type":"Polygon","coordinates":[[[116.12731277914455,24.334529055159102,0],[116.12731417539877,24.334341372691327,0],[116.1278788375852,24.334344611739716,0],[116.12787815789468,24.33444411892049,0],[116.12788737976086,24.334444171802282,0],[116.12788677747233,24.33453234776875,0],[116.12731277914455,24.334529055159102,0]]]},"properties":{"Shape_Leng":0,"Shape_Area":0,"名称":null,"类型":"学生宿舍楼","地区":"东区"}},
{"type":"Feature","geometry":{"type":"Polygon","coordinates":[[[116.12656257620183,24.334891540909368,0],[116.12669596774994,24.33490899559902,0],[116.12669684620607,24.334906362354335,0],[116.12669820675075,24.334903907194864,0],[116.12670000868052,24.334901703571663,0],[116.12670219808696,24.33489981741059,0],[116.12670470946958,24.334898305139966,0],[116.12670746769524,24.334897212002424,0],[116.12671039024606,24.33489657070138,0],[116.12671338968802,24.33489640042265,0],[116.12671637628678,24.33489670626047,0],[116.1267192606922,24.33489747906508,0],[116.12672195661146,24.334898695716475,0],[116.12672438339067,24.33490031981607,0],[116.12672646842782,24.334902302775646,0],[116.12672814934479,24.33490458527095,0],[116.12672937585353,24.334907099016522,0],[116.1267301112605,24.334909768808558,0],[116.1267303335645,24.334912514774835,0],[116.12673003611481,24.334915254764176,0],[116.1269005971254,24.334939943698426,0],[116.12688789061531,24.33502496523291,0],[116.12671205583702,24.33500290388391,0],[116.12671488844306,24.334983950595138,0],[116.12668869088454,24.334980663664993,0],[116.1266857416262,24.335000397460167,0],[116.12654845429049,24.334983172347425,0],[116.12656257620183,24.334891540909368,0]]]},"properties":{"Shape_Leng":0,"Shape_Area":0,"名称":null,"类型":"学生宿舍楼","地区":"东区"}},
{"type":"Feature","geometry":{"type":"Polygon","coordinates":[[[116.12682612409517,24.334825287135917,0],[116.12681106243599,24.334753310159527,0],[116.12691549195085,24.33473588608084,0],[116.12691848887964,24.334637501044423,0],[116.12699906367713,24.33463805047565,0],[116.12699820424265,24.334743864872003,0],[116.12709274808455,24.334772955814056,0],[116.12706621057256,24.334840082421337,0],[116.12694935929002,24.334800845095703,0],[116.12682612409517,24.334825287135917,0]]]},"properties":{"Shape_Leng":0,"Shape_Area":0,"名称":null,"类型":"学生宿舍楼","地区":"东区"}},
{"type":"Feature","geometry":{"type":"Polygon","coordinates":[[[116.12691514296202,24.33450310513983,0],[116.12692335897589,24.334460695049298,0],[116.12690532772669,24.334458346356396,0],[116.12691457680339,24.334398734936702,0],[116.12698411609374,24.334407792888978,0],[116.12698585828367,24.334396564217716,0],[116.12709417462594,24.33441067307134,0],[116.12709228554421,24.334422848548382,0],[116.12716769169577,24.334432670605032,0],[116.12715832983503,24.33449300969958,0],[116.12713718577471,24.33449025557571,0],[116.12713083305364,24.334531200073506,0],[116.12691514296202,24.33450310513983,0]]]},"properties":{"Shape_Leng":0,"Shape_Area":0,"名称":null,"类型":"学生宿舍楼","地区":"东区"}},
{"type":"Feature","geometry":{"type":"Polygon","coordinates":[[[116.12717365720421,24.33404843989993,0],[116.12718493582183,24.334038234727863,0],[116.1271682289797,24.33402273356384,0],[116.12722865011398,24.333968062990174,0],[116.12724183374468,24.333980295196277,0],[116.12725529901908,24.333968111463737,0],[116.12727939324733,24.333990466869775,0],[116.12728698904218,24.333983593993306,0],[116.1273157430145,24.334010272844367,0],[116.12732450444045,24.334017515784048,0],[116.1273589324894,24.334049459196727,0],[116.12735219736703,24.33405555331699,0],[116.12738594752027,24.33408686773597,0],[116.12739206098458,24.3340813361075,0],[116.12743348784899,24.334124366825176,0],[116.12746173035731,24.334150571040862,0],[116.12745359211284,24.3341579347483,0],[116.12747668190669,24.33417935811611,0],[116.12746272552694,24.334191986231268,0],[116.12747220177131,24.334200778558372,0],[116.12740988857868,24.33425716119971,0],[116.1273933771626,24.33424184143316,0],[116.12738569039195,24.334248796622507,0],[116.12717365720421,24.33404843989993,0]]]},"properties":{"Shape_Leng":0,"Shape_Area":0,"名称":null,"类型":"学生宿舍楼","地区":"东区"}},
{"type":"Feature","geometry":{"type":"Polygon","coordinates":[[[116.12769679354754,24.334016865225877,0],[116.12765239128575,24.334053917489438,0],[116.12760517949866,24.334009545081322,0],[116.12760052669297,24.33401370118803,0],[116.12754425984521,24.333960818241923,0],[116.1275494010155,24.333957121131554,0],[116.1275144852381,24.333924305166743,0],[116.12751019973007,24.333928133183612,0],[116.12744980252013,24.33387136816356,0],[116.1274542070098,24.333867651974913,0],[116.12740828573426,24.333824492282474,0],[116.12745402142463,24.33378632737529,0],[116.12746161561242,24.333793967637135,0],[116.12749860467723,24.333763101468296,0],[116.12758378156579,24.333848795012177,0],[116.12759562137539,24.333838915066767,0],[116.1276451849925,24.333888779241978,0],[116.12763844228105,24.333894405822683,0],[116.12768980545971,24.3339460804177,0],[116.12770118471352,24.333936584784805,0],[116.12773951649166,24.333975148927927,0],[116.12770875963909,24.334000814563723,0],[116.12770248523832,24.33399450212862,0],[116.12768722371828,24.334007237385013,0],[116.12769679354754,24.334016865225877,0]]]},"properties":{"Shape_Leng":0,"Shape_Area":0,"名称":null,"类型":"学生宿舍楼","地区":"东区"}},
{"type":"Feature","geometry":{"type":"Polygon","coordinates":[[[116.11943282464166,24.325960435912066,0],[116.1193985764359,24.325886379675502,0],[116.11948796918351,24.32585366238565,0],[116.11946587314424,24.325734208108067,0],[116.11955940889003,24.32572159482738,0],[116.1195739663596,24.325838466512685,0],[116.11967488618924,24.325850822915882,0],[116.11966497381367,24.325936624821548,0],[116.11955095331581,24.32592465402738,0],[116.11952903076971,24.325925911688298,0],[116.11943282464166,24.325960435912066,0]]]},"properties":{"Shape_Leng":0,"Shape_Area":0,"名称":null,"类型":null,"地区":null}},
{"type":"Feature","geometry":{"type":"Polygon","coordinates":[[[116.11933949740877,24.325683493673537,0],[116.11930753710266,24.32561208001982,0],[116.11930721674709,24.32561178273083,0],[116.11940160571628,24.32557628788945,0],[116.11937759256543,24.325458715074962,0],[116.1194666618111,24.325446528310398,0],[116.11948405876186,24.32556509673739,0],[116.11958102064925,24.325577180968597,0],[116.1195721077063,24.325653941118002,0],[116.11946644410092,24.32564136325431,0],[116.1194362225426,24.325645861634776,0],[116.11933949740877,24.325683493673537,0]]]},"properties":{"Shape_Leng":0,"Shape_Area":0,"名称":null,"类型":null,"地区":null}},
{"type":"Feature","geometry":{"type":"Polygon","coordinates":[[[116.11996361776764,24.32597015001916,0],[116.11996237173045,24.325953539961137,0],[116.11992701631323,24.32595781226968,0],[116.11991700438142,24.325884332487814,0],[116.1199512866036,24.32588008799223,0],[116.11994108845704,24.325796558014016,0],[116.11993544241965,24.3257971161379,0],[116.11992823532456,24.32574360148355,0],[116.11977269592002,24.325763527384428,0],[116.11975772176345,24.325667573447326,0],[116.11999328593058,24.325637919201473,0],[116.11999624569009,24.325652855586917,0],[116.12036540862852,24.32560565859763,0],[116.12037911198813,24.32570455351488,0],[116.12039325698069,24.325703028347117,0],[116.12039662373174,24.325723467995143,0],[116.12046901111954,24.325714150090082,0],[116.12047220938841,24.32572910557531,0],[116.12048366746941,24.325728226593238,0],[116.12048824312362,24.325757222172882,0],[116.12052512514626,24.32575255683004,0],[116.12053538809371,24.325759547646964,0],[116.12055768143873,24.325907800562703,0],[116.12047633236297,24.32591743338435,0],[116.12040158932668,24.3259266204121,0],[116.1203179267757,24.325936602766046,0],[116.1203182916169,24.325941142688656,0],[116.1202317865445,24.325951592553274,0],[116.12022752432695,24.32591859311006,0],[116.12020849098317,24.325921023959232,0],[116.12020723388005,24.32591350046554,0],[116.1200394312899,24.325934165677932,0],[116.1200455214564,24.325964133488718,0],[116.11996361776764,24.32597015001916,0]]]},"properties":{"Shape_Leng":0,"Shape_Area":0,"名称":null,"类型":null,"地区":null}},
{"type":"Feature","geometry":{"type":"Polygon","coordinates":[[[116.11924770159565,24.325406261140298,0],[116.11921480926289,24.3253372350435,0],[116.11930339593802,24.325301558873036,0],[116.11928763354138,24.325203089162965,0],[116.1193757252201,24.32519237392631,0],[116.11939006139595,24.325287290192158,0],[116.11948476934957,24.32529891825841,0],[116.11947505752654,24.325374639763975,0],[116.11937067150157,24.325363841831123,0],[116.1193437197597,24.325368264627873,0],[116.11924770159565,24.325406261140298,0]]]},"properties":{"Shape_Leng":0,"Shape_Area":0,"名称":null,"类型":null,"地区":null}},
{"type":"Feature","geometry":{"type":"Polygon","coordinates":[[[116.11917823437395,24.326001296950658,0],[116.11917616390687,24.32600010544615,0],[116.11916833863316,24.325957223134893,0],[116.11917653644636,24.325955758106215,0],[116.11916911068245,24.32591239408045,0],[116.11920823592138,24.325907236263543,0],[116.11920655229112,24.32589288702268,0],[116.11931818111563,24.32587774319185,0],[116.11931953838582,24.325891546001248,0],[116.11935972213679,24.325886091766282,0],[116.11936609362176,24.325929147146933,0],[116.11937487731366,24.32592889558856,0],[116.11938169343642,24.32597449472031,0],[116.11937601134296,24.325975006290484,0],[116.11937282030246,24.325978133989498,0],[116.11918592851035,24.326004219667652,0],[116.11917823437395,24.326001296950658,0]]]},"properties":{"Shape_Leng":0,"Shape_Area":0,"名称":null,"类型":null,"地区":null}},
{"type":"Feature","geometry":{"type":"Polygon","coordinates":[[[116.1196240257637,24.325337448770977,0],[116.11962263410346,24.325320130335815,0],[116.11961074518683,24.325218045636063,0],[116.11960420767694,24.32521639208315,0],[116.11960230589905,24.32519999390819,0],[116.11965322706648,24.3251940575241,0],[116.11965368617162,24.325200522722668,0],[116.11971772221109,24.325192123527987,0],[116.11971650589298,24.325185884742957,0],[116.11976741270446,24.325182025480693,0],[116.11979014979812,24.32531810139393,0],[116.11973494197694,24.325324705377533,0],[116.11973087854295,24.325293061547566,0],[116.11967072178604,24.32530070386484,0],[116.11967419296323,24.3253312772032,0],[116.1196240257637,24.325337448770977,0]]]},"properties":{"Shape_Leng":0,"Shape_Area":0,"名称":null,"类型":null,"地区":null}},
{"type":"Feature","geometry":{"type":"Polygon","coordinates":[[[116.11982709299379,24.32530976661239,0],[116.1198075542522,24.325174493987152,0],[116.11996987752443,24.325152539352757,0],[116.1199922986244,24.32529063525952,0],[116.1199348529263,24.325298869672427,0],[116.11993132488786,24.32527285135728,0],[116.11987936911146,24.32527978814428,0],[116.11988435404311,24.325304928617395,0],[116.11982709299379,24.32530976661239,0]]]},"properties":{"Shape_Leng":0,"Shape_Area":0,"名称":null,"类型":null,"地区":null}},
{"type":"Feature","geometry":{"type":"Polygon","coordinates":[[[116.12011184801251,24.325348124784423,0],[116.12009487983094,24.325252011596483,0],[116.12011201509608,24.32525095690452,0],[116.12010642918415,24.32522091989066,0],[116.12017198281548,24.325211606081734,0],[116.12017781092285,24.32520656215702,0],[116.1202814211011,24.325194006815654,0],[116.12028693042171,24.325198654843867,0],[116.12035625414505,24.325190516829508,0],[116.12036083740607,24.325219855610303,0],[116.12037495338777,24.325218321781204,0],[116.12039016504445,24.325313501544226,0],[116.12033091295687,24.325322159552407,0],[116.12032922472366,24.32531130193921,0],[116.12016486227193,24.325330890924477,0],[116.12016857024892,24.325341067832124,0],[116.12011184801251,24.325348124784423,0]]]},"properties":{"Shape_Leng":0,"Shape_Area":0,"名称":null,"类型":null,"地区":null}}
]}
